[{"OBJECT_NAME":"STARLINK-1454","OBJECT_ID":"2020-035Q","EPOCH":"2026-03-10T00:00:02.999808","MEAN_MOTION":15.51126442,"ECCENTRICITY":0.00086064,"INCLINATION":53.0515,"RA_OF_ASC_NODE":51.3708,"ARG_OF_PERICENTER":61.5292,"MEAN_ANOMALY":248.5071,"EPHEMERIS_TYPE":0,"CLASSIFICATION_TYPE":"U","NORAD_CAT_ID":45671,"ELEMENT_SET_NO":999,"REV_AT_EPOCH":591,"BSTAR":0.001841095,"MEAN_MOTION_DOT":0.00110444,"MEAN_MOTION_DDOT":0},{"OBJECT_NAME":"STARLINK-36556","OBJECT_ID":"2026-020AB","EPOCH":"2026-03-09T22:00:01.999584","MEAN_MOTION":15.6494934,"ECCENTRICITY":0.00014687,"INCLINATION":42.9997,"RA_OF_ASC_NODE":140.5457,"ARG_OF_PERICENTER":282.1228,"MEAN_ANOMALY":116.1198,"EPHEMERIS_TYPE":0,"CLASSIFICATION_TYPE":"U","NORAD_CAT_ID":67642,"ELEMENT_SET_NO":999,"REV_AT_EPOCH":599,"BSTAR":-0.021983753,"MEAN_MOTION_DOT":-0.01955494,"MEAN_MOTION_DDOT":0}]
